NORAD_CAT_ID,OBJECT_NAME,OBJECT_TYPE,EPOCH,MEAN_MOTION,ECCENTRICITY,INCLINATION,RA_OF_ASC_NODE,ARG_OF_PERICENTER,MEAN_ANOMALY,BSTAR,MEAN_MOTION_DOT,MEAN_MOTION_DDOT,TLE_LINE0,TLE_LINE1,TLE_LINE2,SEMIMAJOR_AXIS,PERIOD,APOGEE,PERIGEE,DECAYED
55422.0,STARLINK-5006,PAYLOAD,2023-05-31 01:43:11,15.09300046,0.0002841,69.9973,120.0826,268.9628,91.1211,0.00015175,2.321e-05,0.0,0 STARLINK-5006,1 55422U 23014AH  23151.07166207  .00002321  00000-0  15175-3 0  9999,2 55422  69.9973 120.0826 0002841 268.9628  91.1211 15.09300046 18796,6916.475,95.408,540.305,536.375,0.0
55422.0,STARLINK-5006,PAYLOAD,2023-05-31 08:04:55,15.09307294,0.0002803,69.9973,119.4026,269.0333,91.0511,0.00018269,2.817e-05,0.0,0 STARLINK-5006,1 55422U 23014AH  23151.33675554  .00002817  00000-0  18269-3 0  9995,2 55422  69.9973 119.4026 0002803 269.0333  91.0511 15.09307294 18832,6916.452,95.408,540.256,536.379,0.0
55422.0,STARLINK-5006,PAYLOAD,2023-06-01 01:34:41,15.09323633,0.000285,69.9972,117.5326,269.4028,90.681,0.00017026,2.619e-05,0.0,0 STARLINK-5006,1 55422U 23014AH  23152.06576270  .00002619  00000-0  17026-3 0  9991,2 55422  69.9972 117.5326 0002850 269.4028  90.6810 15.09323633 18944,6916.403,95.407,540.239,536.296,0.0
55422.0,STARLINK-5006,PAYLOAD,2023-06-01 07:56:38,15.0916288,0.0003325,69.9973,116.8534,265.1777,94.9008,-0.0011725,-0.00018715,0.0,0 STARLINK-5006,1 55422U 23014AH  23152.33100300 -.00018715  00000-0 -11725-2 0  9993,2 55422  69.9973 116.8534 0003325 265.1777  94.9008 15.09162880 19920,6916.894,95.417,541.059,536.459,0.0
55422.0,STARLINK-5006,PAYLOAD,2023-06-01 20:40:57,15.08622291,0.0003248,69.9972,115.4955,264.8177,95.2616,-0.0054806,-0.00085035,0.0,0 STARLINK-5006,1 55422U 23014AH  23152.86177858 -.00085035  00000-0 -54806-2 0  9999,2 55422  69.9972 115.4955 0003248 264.8177  95.2616 15.08622291 20001,6918.546,95.451,542.658,538.164,0.0
55422.0,STARLINK-5006,PAYLOAD,2023-06-01 22:16:28,15.08584324,0.0003118,69.9972,115.3256,266.6763,93.4044,-0.0057146,-0.00088526,0.0,0 STARLINK-5006,1 55422U 23014AH  23152.92811005 -.00088526  00000-0 -57146-2 0  9993,2 55422  69.9972 115.3256 0003118 266.6763  93.4044 15.08584324 19075,6918.662,95.454,542.684,538.37,0.0
55422.0,STARLINK-5006,PAYLOAD,2023-06-02 14:00:01,15.06599783,0.0003115,69.9986,113.6475,272.1393,44.6083,-0.066897,-0.00918302,0.0,0 STARLINK-5006,1 55422U 23014AH  23153.58334491 -.00918302  00000-0 -66897-1 0  9991,2 55422  69.9986 113.6475 0003115 272.1393  44.6083 15.06599783 19177,6924.736,95.579,548.758,544.444,0.0
55422.0,STARLINK-5006,PAYLOAD,2023-06-02 22:00:00,15.05984906,0.0003197,69.999,112.7966,269.061,54.6824,-0.071381,-0.00960201,0.0,0 STARLINK-5006,1 55422U 23014AH  23153.91667824 -.00960201  00000-0 -71381-1 0  9996,2 55422  69.9990 112.7966 0003197 269.0610  54.6824 15.05984906  1308,6926.621,95.618,550.7,546.272,0.0
55422.0,STARLINK-5006,PAYLOAD,2023-06-03 14:00:01,15.04636425,0.0003123,69.9989,111.0973,269.1777,66.263,-0.069625,-0.00907264,0.0,0 STARLINK-5006,1 55422U 23014AH  23154.58334491 -.00907264  00000-0 -69625-1 0  9999,2 55422  69.9989 111.0973 0003123 269.1777  66.2630 15.04636425  1303,6930.759,95.704,554.788,550.459,0.0
55422.0,STARLINK-5006,PAYLOAD,2023-06-03 22:00:00,15.04026492,0.0003188,69.9993,110.2491,264.9738,75.1146,-0.075144,-0.00970197,0.0,0 STARLINK-5006,1 55422U 23014AH  23154.91667824 -.00970197  00000-0 -75144-1 0  9993,2 55422  69.9993 110.2491 0003188 264.9738  75.1146 15.04026492 19379,6932.633,95.743,556.708,552.287,0.0
55422.0,STARLINK-5006,PAYLOAD,2023-06-03 22:05:52,15.0590323,0.0004591,69.997,110.2404,210.2059,149.884,-0.014554,-0.00206154,0.0,0 STARLINK-5006,1 55422U 23014AH  23154.92074792 -.00206154  00000-0 -14554-1 0  9993,2 55422  69.9970 110.2404 0004591 210.2059 149.8840 15.05903230 20318,6926.872,95.624,551.917,545.556,0.0
55422.0,STARLINK-5006,PAYLOAD,2023-06-04 14:00:01,15.02676211,0.0003114,69.9993,108.5549,267.3093,79.8446,-0.072743,-0.00900065,0.0,0 STARLINK-5006,1 55422U 23014AH  23155.58335648 -.00900065  00000-0 -72743-1 0  9992,2 55422  69.9993 108.5549 0003114 267.3093  79.8446 15.02676211 19476,6936.785,95.829,560.81,556.49,0.0
55422.0,STARLINK-5006,PAYLOAD,2023-06-04 16:00:00,15.02492416,0.0003117,69.9994,108.3435,267.5377,170.2104,-0.069144,-0.00854716,0.0,0 STARLINK-5006,1 55422U 23014AH  23155.66667824 -.00854716  00000-0 -69144-1 0  9997,2 55422  69.9994 108.3435 0003117 267.5377 170.2104 15.02492416  1302,6937.351,95.841,561.378,557.053,0.0
55422.0,STARLINK-5006,PAYLOAD,2023-06-04 22:03:47,15.0358888,0.0004451,69.9974,107.7082,273.036,87.0292,-0.017877,-0.00236964,0.0,0 STARLINK-5006,1 55422U 23014AH  23155.91930212 -.00236964  00000-0 -17877-1 0  9994,2 55422  69.9974 107.7082 0004451 273.0360  87.0292 15.03588880 20460,6933.978,95.771,558.929,552.756,0.0
55422.0,STARLINK-5006,PAYLOAD,2023-06-05 14:00:01,15.00714836,0.0003125,69.9996,106.0202,270.6474,81.117,-0.075858,-0.00891773,0.0,0 STARLINK-5006,1 55422U 23014AH  23156.58335648 -.00891773  00000-0 -75858-1 0  9998,2 55422  69.9996 106.0202 0003125 270.6474  81.1170 15.00714836 19621,6942.828,95.954,566.862,562.523,0.0
55422.0,STARLINK-5006,PAYLOAD,2023-06-06 00:00:00,14.99933672,0.0003074,70.0,104.9665,271.044,170.4921,-0.082901,-0.00961002,0.0,0 STARLINK-5006,1 55422U 23014AH  23157.00001157 -.00961002  00000-0 -82901-1 0  9991,2 55422  70.0000 104.9665 0003074 271.0440 170.4921 14.99933672  1301,6945.238,96.004,569.238,564.968,0.0
55422.0,STARLINK-5006,PAYLOAD,2023-06-06 06:00:00,14.99414043,0.0003099,69.9999,104.3347,274.0675,76.7918,-0.077959,-0.00886138,0.0,0 STARLINK-5006,1 55422U 23014AH  23157.25001157 -.00886138  00000-0 -77959-1 0  9991,2 55422  69.9999 104.3347 0003099 274.0675  76.7918 14.99414043 19721,6946.843,96.038,570.86,566.555,0.0
55422.0,STARLINK-5006,PAYLOAD,2023-06-06 14:00:01,14.98752794,0.0003066,69.9998,103.4931,269.9422,79.3299,-0.07886,-0.0088139,0.0,0 STARLINK-5006,1 55422U 23014AH  23157.58334491 -.00881390  00000-0 -78860-1 0  9994,2 55422  69.9998 103.4931 0003066 269.9422  79.3299 14.98752794  1309,6948.886,96.08,572.881,568.62,0.0
55422.0,STARLINK-5006,PAYLOAD,2023-06-06 20:00:01,14.98281263,0.0003006,70.0,102.8628,265.8952,351.6545,-0.078922,-0.00872021,0.0,0 STARLINK-5006,1 55422U 23014AH  23157.83334491 -.00872021  00000-0 -78922-1 0  9992,2 55422  70.0000 102.8628 0003006 265.8952 351.6545 14.98281263 19812,6950.344,96.11,574.298,570.119,0.0
55422.0,STARLINK-5006,PAYLOAD,2023-06-06 22:00:00,14.9805814,0.0002999,70.0001,102.6527,268.4415,78.4544,-0.063655,-0.00702083,0.0,0 STARLINK-5006,1 55422U 23014AH  23157.91667824 -.00702083  00000-0 -63655-1 0  9997,2 55422  70.0001 102.6527 0002999 268.4415  78.4544 14.98058140  1306,6951.034,96.124,574.983,570.814,0.0
55422.0,STARLINK-5006,PAYLOAD,2023-06-07 06:00:00,14.97495745,0.000288,69.9999,101.8128,274.2708,69.4722,0.0031682,0.00037101,0.0,0 STARLINK-5006,1 55422U 23014AH  23158.25001157  .00037101  00000-0  31682-2 0  9992,2 55422  69.9999 101.8128 0002880 274.2708  69.4722 14.97495745 19870,6952.774,96.161,576.641,572.637,0.0
55422.0,STARLINK-5006,PAYLOAD,2023-06-07 14:00:01,14.97508046,0.0002887,69.9999,100.9732,270.029,70.2179,0.0001992,2.235e-05,0.0,0 STARLINK-5006,1 55422U 23014AH  23158.58334491  .00002235  00000-0  19920-3 0  9990,2 55422  69.9999 100.9732 0002887 270.0290  70.2179 14.97508046  1302,6952.736,96.16,576.608,572.594,0.0
55422.0,STARLINK-5006,PAYLOAD,2023-06-07 22:00:00,14.97551205,0.0002966,70.0001,100.134,267.1626,69.5833,-0.0020066,-0.0002348,0.0,0 STARLINK-5006,1 55422U 23014AH  23158.91667824 -.00023480  00000-0 -20066-2 0  9995,2 55422  70.0001 100.1340 0002966 267.1626  69.5833 14.97551205 19979,6952.602,96.157,576.529,572.405,0.0
55422.0,STARLINK-5006,PAYLOAD,2023-06-08 14:00:01,14.97504919,0.0002946,69.9998,98.4551,268.1872,61.6225,0.0015779,0.00018387,0.0,0 STARLINK-5006,1 55422U 23014AH  23159.58334491  .00018387  00000-0  15779-2 0  9993,2 55422  69.9998  98.4551 0002946 268.1872  61.6225 14.97504919  1302,6952.746,96.16,576.659,572.562,0.0
55422.0,STARLINK-5006,PAYLOAD,2023-06-08 22:00:00,14.97549626,0.0003018,69.9999,97.6158,266.683,59.618,-0.0027232,-0.00031793,0.0,0 STARLINK-5006,1 55422U 23014AH  23159.91667824 -.00031793  00000-0 -27232-2 0  9994,2 55422  69.9999  97.6158 0003018 266.6830  59.6180 14.97549626 20127,6952.607,96.157,576.57,572.374,0.0
55422.0,STARLINK-5006,PAYLOAD,2023-06-09 12:34:41,14.97584471,0.0002714,69.9988,96.0863,272.4438,87.641,-0.0011795,-0.0001387,0.0,0 STARLINK-5006,1 55422U 23014AH  23160.52409636 -.00013870  00000-0 -11795-2 0  9991,2 55422  69.9988  96.0863 0002714 272.4438  87.6410 14.97584471 21150,6952.499,96.155,576.251,572.477,0.0
55422.0,STARLINK-5006,PAYLOAD,2023-06-09 22:00:00,14.97542303,0.0002929,69.9996,95.0974,268.7879,47.0496,-0.0024896,-0.00029079,0.0,0 STARLINK-5006,1 55422U 23014AH  23160.91667824 -.00029079  00000-0 -24896-2 0  9993,2 55422  69.9996  95.0974 0002929 268.7879  47.0496 14.97542303 20270,6952.63,96.158,576.531,572.458,0.0
55422.0,STARLINK-5006,PAYLOAD,2023-06-10 12:37:30,14.975221,0.0002627,69.9986,93.5624,274.2389,85.8469,-2.232e-05,-3.53e-06,0.0,0 STARLINK-5006,1 55422U 23014AH  23161.52605037 -.00000353  00000-0 -22320-4 0  9995,2 55422  69.9986  93.5624 0002627 274.2389  85.8469 14.97522100 21305,6952.692,96.159,576.384,572.731,0.0
55422.0,STARLINK-5006,PAYLOAD,2023-06-11 12:40:18,14.97520965,0.0002712,69.9987,91.0398,271.2106,88.8741,6.3589e-06,-1.8e-07,0.0,0 STARLINK-5006,1 55422U 23014AH  23162.52798959 -.00000018  00000-0  63589-5 0  9992,2 55422  69.9987  91.0398 0002712 271.2106  88.8741 14.97520965 21455,6952.696,96.159,576.446,572.675,0.0
55422.0,STARLINK-5006,PAYLOAD,2023-06-11 19:05:02,14.97521215,0.0002747,69.9986,90.3672,271.3963,88.6881,5.1294e-05,5.07e-06,0.0,0 STARLINK-5006,1 55422U 23014AH  23162.79517230  .00000507  00000-0  51294-4 0  9993,2 55422  69.9986  90.3672 0002747 271.3963  88.6881 14.97521215 21497,6952.695,96.159,576.47,572.65,0.0
